{"type": "FeatureCollection", "features": [ {"type": "Feature", "properties": {"norad_id": 34375, "name": "IRIDIUM 33 DEB", "group": "iridium-33-debris", "lat": -18.848062556662505, "lon": 3.5861299085237786, "alt_km": 816.8443274709925, "timestamp": "2025-12-13T13:34:35.425799+00:00", "meta": {"OBJECT_NAME": "IRIDIUM 33 DEB", "OBJECT_ID": "1997-051FT", "EPOCH": "2025-12-12T23:49:03.895680", "MEAN_MOTION": 14.17992706, "ECCENTRICITY": 0.01033277, "INCLINATION": 86.4327, "RA_OF_ASC_NODE": 182.597, "ARG_OF_PERICENTER": 125.9322, "MEAN_ANOMALY": 27.0467, "EPHEMERIS_TYPE": 0, "CLASSIFICATION_TYPE": "U", "NORAD_CAT_ID": 34375, "ELEMENT_SET_NO": 999, "REV_AT_EPOCH": 86715, "BSTAR": 0.00059451222, "MEAN_MOTION_DOT": 1.302e-05, "MEAN_MOTION_DDOT": 0}, "tle": {"line1": "1 34375U 97051FT  25346.99240620  .00001302  00000+0  59451-3 0  9998", "line2": "2 34375  86.4327 182.5970 0103327 125.9322  27.0467 14.17992706867155"}}, "geometry": {"type": "Point", "coordinates": [3.5861299085237786, -18.848062556662505]}}, {"type": "Feature", "properties": {"norad_id": 34376, "name": "IRIDIUM 33 DEB", "group": "iridium-33-debris", "lat": -17.716819014012017, "lon": 4.984063558146395, "alt_km": 709.1018919603775, "timestamp": "2025-12-13T13:34:35.425809+00:00", "meta": {"OBJECT_NAME": "IRIDIUM 33 DEB", "OBJECT_ID": "1997-051FU", "EPOCH": "2025-12-12T19:35:45.071232", "MEAN_MOTION": 14.62570481, "ECCENTRICITY": 0.00271711, "INCLINATION": 86.2989, "RA_OF_ASC_NODE": 6.5056, "ARG_OF_PERICENTER": 166.3978, "MEAN_ANOMALY": 193.7972, "EPHEMERIS_TYPE": 0, "CLASSIFICATION_TYPE": "U", "NORAD_CAT_ID": 34376, "ELEMENT_SET_NO": 999, "REV_AT_EPOCH": 88008, "BSTAR": 0.0020216888, "MEAN_MOTION_DOT": 0.00010344, "MEAN_MOTION_DDOT": 0}, "tle": {"line1": "1 34376U 97051FU  25346.81649388  .00010344  00000+0  20217-2 0  9997", "line2": "2 34376  86.2989   6.5056 0027171 166.3978 193.7972 14.62570481880087"}}, "geometry": {"type": "Point", "coordinates": [4.984063558146395, -17.716819014012017]}}, {"type": "Feature", "properties": {"norad_id": 34486, "name": "IRIDIUM 33 DEB", "group": "iridium-33-debris", "lat": -62.19514987498489, "lon": 4.775667039183424, "alt_km": 596.419494415125, "timestamp": "2025-12-13T13:34:35.425818+00:00", "meta": {"OBJECT_NAME": "IRIDIUM 33 DEB", "OBJECT_ID": "1997-051GB", "EPOCH": "2025-12-12T20:43:41.056032", "MEAN_MOTION": 14.95813552, "ECCENTRICITY": 0.00136453, "INCLINATION": 86.394, "RA_OF_ASC_NODE": 11.9677, "ARG_OF_PERICENTER": 113.2535, "MEAN_ANOMALY": 6.5669, "EPHEMERIS_TYPE": 0, "CLASSIFICATION_TYPE": "U", "NORAD_CAT_ID": 34486, "ELEMENT_SET_NO": 999, "REV_AT_EPOCH": 88988, "BSTAR": 0.0029287104, "MEAN_MOTION_DOT": 0.0003288, "MEAN_MOTION_DDOT": 0}, "tle": {"line1": "1 34486U 97051GB  25346.86366963  .00032880  00000+0  29287-2 0  9994", "line2": "2 34486  86.3940  11.9677 0013645 113.2535   6.5669 14.95813552889883"}}, "geometry": {"type": "Point", "coordinates": [4.775667039183424, -62.19514987498489]}}, {"type": "Feature", "properties": {"norad_id": 34487, "name": "IRIDIUM 33 DEB", "group": "iridium-33-debris", "lat": 22.829910864058686, "lon": -169.5208345725687, "alt_km": 727.624125762889, "timestamp": "2025-12-13T13:34:35.425827+00:00", "meta": {"OBJECT_NAME": "IRIDIUM 33 DEB", "OBJECT_ID": "1997-051GC", "EPOCH": "2025-12-12T20:46:06.073248", "MEAN_MOTION": 14.43216615, "ECCENTRICITY": 0.00327589, "INCLINATION": 86.3434, "RA_OF_ASC_NODE": 12.3232, "ARG_OF_PERICENTER": 127.97, "MEAN_ANOMALY": 352.4945, "EPHEMERIS_TYPE": 0, "CLASSIFICATION_TYPE": "U", "NORAD_CAT_ID": 34487, "ELEMENT_SET_NO": 999, "REV_AT_EPOCH": 88250, "BSTAR": 0.00028346709, "MEAN_MOTION_DOT": 9.79e-06, "MEAN_MOTION_DDOT": 0}, "tle": {"line1": "1 34487U 97051GC  25346.86534807  .00000979  00000+0  28347-3 0  9990", "line2": "2 34487  86.3434  12.3232 0032758 127.9700 352.4945 14.43216615882508"}}, "geometry": {"type": "Point", "coordinates": [-169.5208345725687, 22.829910864058686]}}, {"type": "Feature", "properties": {"norad_id": 34488, "name": "IRIDIUM 33 DEB", "group": "iridium-33-debris", "lat": 20.848064392189094, "lon": -53.19224711429681, "alt_km": 468.6192948925982, "timestamp": "2025-12-13T13:34:35.425837+00:00", "meta": {"OBJECT_NAME": "IRIDIUM 33 DEB", "OBJECT_ID": "1997-051GD", "EPOCH": "2025-12-12T09:13:17.706144", "MEAN_MOTION": 15.29287842, "ECCENTRICITY": 0.0013375, "INCLINATION": 86.3234, "RA_OF_ASC_NODE": 305.9899, "ARG_OF_PERICENTER": 52.1887, "MEAN_ANOMALY": 308.0569, "EPHEMERIS_TYPE": 0, "CLASSIFICATION_TYPE": "U", "NORAD_CAT_ID": 34488, "ELEMENT_SET_NO": 999, "REV_AT_EPOCH": 89234, "BSTAR": 0.0061124826, "MEAN_MOTION_DOT": 0.00177845, "MEAN_MOTION_DDOT": 0}, "tle": {"line1": "1 34488U 97051GD  25346.38423271  .00177845  00000+0  61125-2 0  9997", "line2": "2 34488  86.3234 305.9899 0013375  52.1887 308.0569 15.29287842892343"}}, "geometry": {"type": "Point", "coordinates": [-53.19224711429681, 20.848064392189094]}}, {"type": "Feature", "properties": {"norad_id": 34492, "name": "IRIDIUM 33 DEB", "group": "iridium-33-debris", "lat": -13.362927963776272, "lon": 155.1348742020372, "alt_km": 708.808603297809, "timestamp": "2025-12-13T13:34:35.425846+00:00", "meta": {"OBJECT_NAME": "IRIDIUM 33 DEB", "OBJECT_ID": "1997-051GH", "EPOCH": "2025-12-12T23:19:24.163680", "MEAN_MOTION": 14.25737057, "ECCENTRICITY": 0.01891196, "INCLINATION": 86.4723, "RA_OF_ASC_NODE": 334.5351, "ARG_OF_PERICENTER": 237.4159, "MEAN_ANOMALY": 151.0038, "EPHEMERIS_TYPE": 0, "CLASSIFICATION_TYPE": "U", "NORAD_CAT_ID": 34492, "ELEMENT_SET_NO": 999, "REV_AT_EPOCH": 85062, "BSTAR": 0.0063651158, "MEAN_MOTION_DOT": 0.00018276, "MEAN_MOTION_DDOT": 0}, "tle": {"line1": "1 34492U 97051GH  25346.97180745  .00018276  00000+0  63651-2 0  9991", "line2": "2 34492  86.4723 334.5351 0189119 237.4159 151.0038 14.25737057850628"}}, "geometry": {"type": "Point", "coordinates": [155.1348742020372, -13.362927963776272]}}, {"type": "Feature", "properties": {"norad_id": 34497, "name": "IRIDIUM 33 DEB", "group": "iridium-33-debris", "lat": 78.40473925963803, "lon": 70.54503327004332, "alt_km": 804.4551565444172, "timestamp": "2025-12-13T13:34:35.425855+00:00", "meta": {"OBJECT_NAME": "IRIDIUM 33 DEB", "OBJECT_ID": "1997-051GN", "EPOCH": "2025-12-12T22:54:15.485760", "MEAN_MOTION": 14.27454952, "ECCENTRICITY": 0.00787666, "INCLINATION": 86.2781, "RA_OF_ASC_NODE": 52.31, "ARG_OF_PERICENTER": 338.886, "MEAN_ANOMALY": 199.6428, "EPHEMERIS_TYPE": 0, "CLASSIFICATION_TYPE": "U", "NORAD_CAT_ID": 34497, "ELEMENT_SET_NO": 999, "REV_AT_EPOCH": 86886, "BSTAR": 0.00092375245, "MEAN_MOTION_DOT": 2.36e-05, "MEAN_MOTION_DDOT": 0}, "tle": {"line1": "1 34497U 97051GN  25346.95434590  .00002360  00000+0  92375-3 0  9997", "line2": "2 34497  86.2781  52.3100 0078766 338.8860 199.6428 14.27454952868860"}}, "geometry": {"type": "Point", "coordinates": [70.54503327004332, 78.40473925963803]}}, {"type": "Feature", "properties": {"norad_id": 34508, "name": "IRIDIUM 33 DEB", "group": "iridium-33-debris", "lat": -86.33687823149697, "lon": 4.8990442823415545, "alt_km": 778.3918707766115, "timestamp": "2025-12-13T13:34:35.425865+00:00", "meta": {"OBJECT_NAME": "IRIDIUM 33 DEB", "OBJECT_ID": "1997-051GZ", "EPOCH": "2025-12-12T17:57:57.853728", "MEAN_MOTION": 14.3842932, "ECCENTRICITY": 0.00660592, "INCLINATION": 86.3696, "RA_OF_ASC_NODE": 102.6391, "ARG_OF_PERICENTER": 172.9661, "MEAN_ANOMALY": 187.2481, "EPHEMERIS_TYPE": 0, "CLASSIFICATION_TYPE": "U", "NORAD_CAT_ID": 34508, "ELEMENT_SET_NO": 999, "REV_AT_EPOCH": 87309, "BSTAR": 0.002129503, "MEAN_MOTION_DOT": 6.683e-05, "MEAN_MOTION_DDOT": 0}, "tle": {"line1": "1 34508U 97051GZ  25346.74858627  .00006683  00000+0  21295-2 0  9992", "line2": "2 34508  86.3696 102.6391 0066059 172.9661 187.2481 14.38429320873094"}}, "geometry": {"type": "Point", "coordinates": [4.8990442823415545, -86.33687823149697]}}, {"type": "Feature", "properties": {"norad_id": 34521, "name": "IRIDIUM 33 DEB", "group": "iridium-33-debris", "lat": 19.26983234039199, "lon": -151.08355395843253, "alt_km": 681.8479061088174, "timestamp": "2025-12-13T13:34:35.425874+00:00", "meta": {"OBJECT_NAME": "IRIDIUM 33 DEB", "OBJECT_ID": "1997-051HN", "EPOCH": "2025-12-12T20:26:01.801536", "MEAN_MOTION": 14.6337022, "ECCENTRICITY": 0.00015553, "INCLINATION": 86.3804, "RA_OF_ASC_NODE": 30.4988, "ARG_OF_PERICENTER": 212.1757, "MEAN_ANOMALY": 147.936, "EPHEMERIS_TYPE": 0, "CLASSIFICATION_TYPE": "U", "NORAD_CAT_ID": 34521, "ELEMENT_SET_NO": 999, "REV_AT_EPOCH": 88474, "BSTAR": 0.0012860068, "MEAN_MOTION_DOT": 6.666e-05, "MEAN_MOTION_DDOT": 0}, "tle": {"line1": "1 34521U 97051HN  25346.85140974  .00006666  00000+0  12860-2 0  9997", "line2": "2 34521  86.3804  30.4988 0001555 212.1757 147.9360 14.63370220884748"}}, "geometry": {"type": "Point", "coordinates": [-151.08355395843253, 19.26983234039199]}}, {"type": "Feature", "properties": {"norad_id": 34525, "name": "IRIDIUM 33 DEB", "group": "iridium-33-debris", "lat": -80.4571643418552, "lon": 24.32444802883952, "alt_km": 761.0581991420659, "timestamp": "2025-12-13T13:34:35.425883+00:00", "meta": {"OBJECT_NAME": "IRIDIUM 33 DEB", "OBJECT_ID": "1997-051HS", "EPOCH": "2025-12-12T15:21:36.053568", "MEAN_MOTION": 14.42905953, "ECCENTRICITY": 0.00066523, "INCLINATION": 86.373, "RA_OF_ASC_NODE": 46.8862, "ARG_OF_PERICENTER": 95.5071, "MEAN_ANOMALY": 57.9637, "EPHEMERIS_TYPE": 0, "CLASSIFICATION_TYPE": "U", "NORAD_CAT_ID": 34525, "ELEMENT_SET_NO": 999, "REV_AT_EPOCH": 88086, "BSTAR": 0.00058911832, "MEAN_MOTION_DOT": 1.988e-05, "MEAN_MOTION_DDOT": 0}, "tle": {"line1": "1 34525U 97051HS  25346.64000062  .00001988  00000+0  58912-3 0  9992", "line2": "2 34525  86.3730  46.8862 0006652  95.5071  57.9637 14.42905953880867"}}, "geometry": {"type": "Point", "coordinates": [24.32444802883952, -80.4571643418552]}}]}